{
    "links": {
        "self": "http://www.neowsapp.com/rest/v1/neo/54049763?api_key=iIulBulltgU6a56xZRHN4H3l9WmuAYTsLGpBGhQ2"
    },
    "id": "54049763",
    "neo_reference_id": "54049763",
    "name": "(2020 OY3)",
    "designation": "2020 OY3",
    "nasa_jpl_url": "http://ssd.jpl.nasa.gov/sbdb.cgi?sstr=54049763",
    "absolute_magnitude_h": 24.163,
    "estimated_diameter": {
        "kilometers": {
            "estimated_diameter_min": 0.0390800379,
            "estimated_diameter_max": 0.0873856214
        },
        "meters": {
            "estimated_diameter_min": 39.0800379341,
            "estimated_diameter_max": 87.3856213839
        },
        "miles": {
            "estimated_diameter_min": 0.0242832023,
            "estimated_diameter_max": 0.0542988909
        },
        "feet": {
            "estimated_diameter_min": 128.2153516557,
            "estimated_diameter_max": 286.6982420612
        }
    },
    "is_potentially_hazardous_asteroid": false,
    "close_approach_data": [
        {
            "close_approach_date": "1989-08-19",
            "close_approach_date_full": "1989-Aug-19 05:55",
            "epoch_date_close_approach": 619509300000,
            "relative_velocity": {
                "kilometers_per_second": "13.9750753705",
                "kilometers_per_hour": "50310.2713338655",
                "miles_per_hour": "31260.8460963122"
            },
            "miss_distance": {
                "astronomical": "0.3202966988",
                "lunar": "124.5954158332",
                "kilometers": "47915703.908511556",
                "miles": "29773437.7960932328"
            },
            "orbiting_body": "Earth"
        },
        {
            "close_approach_date": "2020-07-16",
            "close_approach_date_full": "2020-Jul-16 06:31",
            "epoch_date_close_approach": 1594881060000,
            "relative_velocity": {
                "kilometers_per_second": "6.1931259579",
                "kilometers_per_hour": "22295.2534484812",
                "miles_per_hour": "13853.4034552521"
            },
            "miss_distance": {
                "astronomical": "0.1185858548",
                "lunar": "46.1298975172",
                "kilometers": "17740191.290209276",
                "miles": "11023243.7131329688"
            },
            "orbiting_body": "Earth"
        },
        {
            "close_approach_date": "2193-07-29",
            "close_approach_date_full": "2193-Jul-29 15:05",
            "epoch_date_close_approach": 7055391900000,
            "relative_velocity": {
                "kilometers_per_second": "6.8162117036",
                "kilometers_per_hour": "24538.3621328732",
                "miles_per_hour": "15247.1839597289"
            },
            "miss_distance": {
                "astronomical": "0.0961639854",
                "lunar": "37.4077903206",
                "kilometers": "14385927.386551098",
                "miles": "8939000.7710292324"
            },
            "orbiting_body": "Earth"
        }
    ],
    "orbital_data": {
        "orbit_id": "4",
        "orbit_determination_date": "2020-08-19 07:54:44",
        "first_observation_date": "2020-07-21",
        "last_observation_date": "2020-08-18",
        "data_arc_in_days": 28,
        "observations_used": 25,
        "orbit_uncertainty": "6",
        "minimum_orbit_intersection": ".10496",
        "jupiter_tisserand_invariant": "3.563",
        "epoch_osculation": "2459000.5",
        "eccentricity": ".480601715424719",
        "semi_major_axis": "2.123001708369897",
        "inclination": "6.940166019098322",
        "ascending_node_longitude": "324.676644608091",
        "orbital_period": "1129.858201196994",
        "perihelion_distance": "1.102683445477715",
        "perihelion_argument": "327.4953374808122",
        "aphelion_distance": "3.143319971262079",
        "perihelion_time": "2459042.488804602205",
        "mean_anomaly": "346.6213568740046",
        "mean_motion": ".3186240535481434",
        "equinox": "J2000",
        "orbit_class": {
            "orbit_class_type": "AMO",
            "orbit_class_description": "Near-Earth asteroid orbits similar to that of 1221 Amor",
            "orbit_class_range": "1.017 AU < q (perihelion) < 1.3 AU"
        }
    },
    "is_sentry_object": false
}